satname,norad_id,inclination_deg,eccentricity,mean_motion_rev_per_day,perigee_km,apogee_km,l1,l2
STARLINK-1267,45384,53.0554,0.0001981,15.06432331,545.7405779320407,548.4843617719953,1 45384U 20019AA  25326.25251961  .00011055  00000+0  75922-3 0  9994,2 45384  53.0554 269.5817 0001981  72.7179 287.4026 15.06432331313800
STARLINK-1272,45386,53.0536,0.0007612,15.37471976,448.38757745137264,458.7881954184804,1 45386U 20019AC  25326.75612007  .00062286  00000+0  16656-2 0  9993,2 45386  53.0536 259.9766 0007612  84.9139 275.2732 15.37471976313986
STARLINK-1274,45387,53.035,0.0004243,15.31595821,468.14445472275565,473.9566752904202,1 45387U 20019AD  25326.07543323  .00027425  00000+0  89496-3 0  9992,2 45387  53.0350 251.3006 0004243  37.3331 322.7963 15.31595821314049
STARLINK-1280,45388,53.0539,0.0008417,15.43595617,429.77265719170555,441.24274668294674,1 45388U 20019AE  25326.91668980  .00109776  00000+0  23761-2 0  9995,2 45388  53.0539 277.7994 0008417  74.6776 145.5215 15.43595617  5922
STARLINK-1283,45389,53.0527,0.0009042,15.33459427,459.31223341128134,471.688267014566,1 45389U 20019AF  25326.25777246  .00061015  00000+0  18545-2 0  9996,2 45389  53.0527 261.4747 0009042  96.1406 264.0625 15.33459427313921
STARLINK-1284,45390,53.0556,0.0001317,15.06406013,546.2810630426184,548.1051949986031,1 45390U 20019AG  25326.27085243  .00000272  00000+0  37143-4 0  9994,2 45390  53.0556 268.8442 0001317  86.9350 273.1790 15.06406013313815
STARLINK-1297,45395,53.0545,0.0001606,15.0643392,545.9954056916022,548.2197942571147,1 45395U 20019AM  25326.24137645  .00012315  00000+0  84340-3 0  9991,2 45395  53.0545 268.9724 0001606  85.6194 274.4978 15.06433920312992
STARLINK-1307,45397,53.0548,0.0001448,15.06387045,546.2484672114251,548.254059652515,1 45397U 20019AP  25326.23403581  .00003020  00000+0  22164-3 0  9996,2 45397  53.0548 269.0040 0001448  88.5860 271.5294 15.06387045313633
STARLINK-1255,45399,53.0488,0.0006397,15.33360767,461.41574156051684,470.1718666312772,1 45399U 20019AR  25326.07036598  .00045146  00000+0  13831-2 0  9995,2 45399  53.0488 253.4264 0006397  88.6941 271.4793 15.33360767313828
STARLINK-1260,45404,53.0527,0.0001519,15.064287,546.0716508835167,548.17554505318,1 45404U 20019AW  25326.23492468  .00009267  00000+0  63971-3 0  9997,2 45404  53.0527 258.9994 0001519  79.0835 281.0325 15.06428700313668
STARLINK-1263,45405,53.0559,0.0001851,15.06431811,545.8321995487177,548.3959274924327,1 45405U 20019AX  25326.22017556  .00002541  00000+0  18926-3 0  9996,2 45405  53.0559 259.0692 0001851  87.2386 272.8815 15.06431811313661
STARLINK-1265,45406,53.056,0.0001555,15.06407827,546.1106814438963,548.2644573849839,1 45406U 20019AY  25326.09485500 -.00000249  00000+0  22036-5 0  9993,2 45406  53.0560 259.6307 0001555  97.5789 262.5376 15.06407827313641
STARLINK-1278,45408,53.0535,0.0007675,15.36579474,450.987663165246,461.4784211799815,1 45408U 20019BA  25326.91668980  .00083379  00000+0  22848-2 0  9993,2 45408  53.0535 279.2908 0007675  69.4784  94.7280 15.36579474  5819
STARLINK-1296,45412,53.0559,0.0001477,15.06406396,546.1690841021482,548.2148262755118,1 45412U 20019BE  25326.23123412  .00013937  00000+0  95249-3 0  9998,2 45412  53.0559 259.0164 0001477  98.3706 261.7450 15.06406396313668
STARLINK-1298,45413,53.0449,0.000833,15.56022681,393.5359439770509,404.8269565151613,1 45413U 20019BF  25326.24129998  .00118455  00000+0  16513-2 0  9992,2 45413  53.0449 227.6695 0008330  40.1806 319.9819 15.56022681314200
STARLINK-1309,45414,53.0549,0.0001055,15.06407078,546.4592429883805,547.9204869568903,1 45414U 20019BG  25326.11331518  .00016749  00000+0  11404-2 0  9999,2 45414  53.0549 259.5491 0001055  96.5009 263.6100 15.06407078313633
STARLINK-1316,45415,53.0561,0.0001573,15.06418606,546.0651854566977,548.2438821732358,1 45415U 20019BH  25326.13909882  .00003339  00000+0  24283-3 0  9998,2 45415  53.0561 259.4330 0001573  81.8738 278.2429 15.06418606313679
STARLINK-1318,45416,53.0492,0.0005849,15.63330293,374.09339500704937,381.99677681114645,1 45416U 20019BJ  25325.99762832  .00057558  00000+0  61556-3 0  9990,2 45416  53.0492 219.2312 0005849 108.8954 251.2694 15.63330293314211
STARLINK-1286,45417,53.0537,0.000481,15.38527415,447.17856970912453,453.7476830306923,1 45417U 20019BK  25326.17797840  .00066849  00000+0  17266-2 0  9990,2 45417  53.0537 282.9415 0004810  70.0305 290.1215 15.38527415313609
STARLINK-1308,45419,53.0563,0.0001664,15.06419383,545.9997843569499,548.3045205868921,1 45419U 20019BM  25326.30587649  .00004306  00000+0  30767-3 0  9993,2 45419  53.0563 288.6788 0001664  92.0749 268.0431 15.06419383313283
STARLINK-1329,45531,53.0535,0.0001514,15.06427659,546.0783034463848,548.175273321508,1 45531U 20025A   25326.00917058  .00009085  00000+0  62757-3 0  9996,2 45531  53.0535 230.0160 0001514  85.3006 274.8156 15.06427659308869
STARLINK-1338,45532,53.0534,0.0001423,15.06425448,546.1480985800881,548.1190305827677,1 45532U 20025B   25326.02023165  .00011030  00000+0  75770-3 0  9998,2 45532  53.0534 229.9639 0001423 102.0074 258.1074 15.06425448308866
STARLINK-1350,45535,53.0721,0.0002285,15.33025029,465.2289314445243,468.35706445358664,1 45535U 20025E   25326.78660293  .00008061  00000+0  26036-3 0  9994,2 45535  53.0721 174.0343 0002285  99.1321 260.9938 15.33025029309746
STARLINK-1362,45538,53.0529,0.0001522,15.06404577,546.1434942125188,548.2515660434901,1 45538U 20025H   25326.78223669  .00000741  00000+0  68633-4 0  9996,2 45538  53.0529 226.2631 0001522 101.6640 258.4519 15.06404577308982
STARLINK-1368,45540,53.0546,0.0001791,15.06415757,545.9229441461148,548.4035867011889,1 45540U 20025K   25326.12343067  .00005310  00000+0  37497-3 0  9992,2 45540  53.0546 229.5028 0001791  94.1474 265.9719 15.06415757308874
STARLINK-1371,45542,53.0538,0.0001761,15.06400046,545.9918630986804,548.4309708111314,1 45542U 20025M   25326.02760364  .00001596  00000+0  12601-3 0  9998,2 45542  53.0538 229.9286 0001761  88.9886 271.1305 15.06400046308866
STARLINK-1372,45543,53.054,0.0001702,15.06436242,545.9218082352791,548.2791590747147,1 45543U 20025N   25326.13080510  .00013847  00000+0  94575-3 0  9991,2 45543  53.0540 229.4697 0001702  82.5198 277.5985 15.06436242307974
STARLINK-1373,45544,53.0533,0.0001111,15.06417313,546.3890962653268,547.9278969246707,1 45544U 20025P   25326.01654635  .00014689  00000+0  10025-2 0  9996,2 45544  53.0533 229.9804 0001111  80.4702 279.6412 15.06417313308869
STARLINK-1294,45551,53.046,0.00061,15.63872815,372.3621561428763,380.602791901184,1 45551U 20025W   25326.76446288  .00067862  00000+0  70851-3 0  9994,2 45551  53.0460 150.9597 0006100 130.8449 229.3095 15.63872815310046
STARLINK-1325,45554,53.0509,0.0004182,15.70014688,356.03758095045123,361.6724010517237,1 45554U 20025Z   25326.91668980  .00287335  00000+0  22659-2 0  9990,2 45554  53.0509 142.6248 0004182 279.0420 306.3431 15.70014688  5930
STARLINK-1327,45555,53.0533,0.0001455,15.06424667,546.1283309521714,548.143585382998,1 45555U 20025AA  25326.12159333  .00008458  00000+0  58561-3 0  9990,2 45555  53.0533 209.5106 0001455  90.7664 269.3492 15.06424667309159
STARLINK-1356,45564,53.0526,0.0001403,15.06419746,546.1794220412794,548.1226578652895,1 45564U 20025AK  25326.05893467  .00007190  00000+0  50081-3 0  9996,2 45564  53.0526 209.7898 0001403  94.2732 265.8417 15.06419746309148
STARLINK-1357,45565,53.0594,0.0009557,15.36035955,451.312005137248,464.37830142502935,1 45565U 20025AL  25326.80190999  .00052277  00000+0  14670-2 0  9999,2 45565  53.0594 187.1620 0009557  87.0610 273.1485 15.36035955309538
STARLINK-1361,45567,53.0519,0.0001535,15.06426468,546.067409966302,548.1934670699266,1 45567U 20025AN  25326.07736437  .00010967  00000+0  75349-3 0  9994,2 45567  53.0519 209.7058 0001535  92.4862 267.6303 15.06426468309155
STARLINK-1363,45568,53.0525,0.0006802,15.44952706,426.88511306837336,436.14896642404346,1 45568U 20025AP  25326.04754170  .00079982  00000+0  16628-2 0  9992,2 45568  53.0525 201.8632 0006802 130.9365 229.2230 15.44952706309257
STARLINK-1366,45569,53.0506,0.0004961,15.42831856,434.3748289758478,441.13755820252754,1 45569U 20025AQ  25326.09542341  .00018401  00000+0  42160-3 0  9993,2 45569  53.0506 201.3316 0004961 129.6224 230.5219 15.42831856309267
STARLINK-1376,45570,53.0546,0.0001474,15.06402227,546.1839371410597,548.2255278838038,1 45570U 20025AR  25326.00733359  .00000880  00000+0  77972-4 0  9999,2 45570  53.0546 210.0260 0001474  80.9918 279.1237 15.06402227309134
STARLINK-1320,45572,53.0552,0.0009778,15.45240743,424.0131360698251,437.3284405806735,1 45572U 20025AT  25326.78922041  .00021828  00000+0  45883-3 0  9994,2 45572  53.0552 143.9136 0009778  95.4369 264.7752 15.45240743310157
STARLINK-1321,45573,53.0539,0.000127,15.063937,546.3513448791464,548.1103883172627,1 45573U 20025AU  25326.78968593  .00001373  00000+0  11108-3 0  9993,2 45573  53.0539 196.5107 0001270  91.2617 268.8518 15.06393700309099
STARLINK-1328,45576,53.0469,0.000863,15.7668148,334.05296436619756,345.64821094248964,1 45576U 20025AX  25326.91668980  .00173338  00000+0  10416-2 0  9999,2 45576  53.0469 161.6507 0008630 119.1595  15.3800 15.76681480  5963
STARLINK-1331,45578,53.0548,0.0001535,15.06407453,546.1256781635293,548.2517531582371,1 45578U 20025AZ  25325.97138929 -.00001584  00000+0 -87461-4 0  9992,2 45578  53.0548 200.1849 0001535  84.6807 275.4358 15.06407453309288
STARLINK-1333,45580,53.0524,0.0001415,15.06405462,546.2148832933208,548.1747521977422,1 45580U 20025BB  25326.04419494  .00003377  00000+0  24547-3 0  9998,2 45580  53.0524 209.8568 0001415  92.9567 267.1584 15.06405462309143
STARLINK-1335,45581,53.0522,0.0001318,15.06419507,546.2390193777492,548.0645254981628,1 45581U 20025BC  25326.04879870  .00004761  00000+0  33813-3 0  9991,2 45581  53.0522 199.8388 0001318  88.9397 271.1743 15.06419507309280
